<?xml version="1.0" encoding="UTF-8"?>
<gpx version="1.1" creator="Smart360" xmlns="http://www.topografix.com/GPX/1/1"><trk><name>Moja tura · Pohodništvo</name><trkseg><trkpt lat="46.1245" lon="14.461"><ele>456</ele><time>2026-09-30T22:38:26.263Z</time></trkpt><trkpt lat="46.124575" lon="14.461"><ele>459</ele><time>2026-09-30T22:38:27.743Z</time></trkpt><trkpt lat="46.124649999999995" lon="14.461"><ele>462</ele><time>2026-09-30T22:38:29.243Z</time></trkpt><trkpt lat="46.124725" lon="14.461"><ele>465</ele><time>2026-09-30T22:38:30.743Z</time></trkpt><trkpt lat="46.1248" lon="14.461"><ele>468</ele><time>2026-09-30T22:38:32.243Z</time></trkpt></trkseg></trk></gpx>