<?xml version="1.0" encoding="UTF-8"?>
<gpx version="1.1" creator="Smart360" xmlns="http://www.topografix.com/GPX/1/1"><trk><name>smarna-gora</name><trkseg><trkpt lat="46.1245" lon="14.461"><ele>456</ele><time>2026-09-30T22:37:14.948Z</time></trkpt><trkpt lat="46.124575" lon="14.461"><ele>459</ele><time>2026-09-30T22:37:16.415Z</time></trkpt><trkpt lat="46.124649999999995" lon="14.461"><ele>462</ele><time>2026-09-30T22:37:17.915Z</time></trkpt><trkpt lat="46.124725" lon="14.461"><ele>465</ele><time>2026-09-30T22:37:19.415Z</time></trkpt><trkpt lat="46.1248" lon="14.461"><ele>468</ele><time>2026-09-30T22:37:20.915Z</time></trkpt><trkpt lat="46.124874999999996" lon="14.461"><ele>471</ele><time>2026-09-30T22:37:22.415Z</time></trkpt></trkseg></trk></gpx>