<?xml version="1.0" encoding="UTF-8"?>
<gpx version="1.1" creator="Smart360" xmlns="http://www.topografix.com/GPX/1/1"><trk><name>Moja tura · Kolesarjenje</name><trkseg><trkpt lat="46.36836666358029" lon="14.114600833314043"><ele>475.33332947532205</ele><time>2026-09-30T01:27:22.458Z</time></trkpt><trkpt lat="46.36849991667708" lon="14.11460749843763"><ele>475.9998958365885</ele><time>2026-09-30T01:27:24.458Z</time></trkpt><trkpt lat="46.3686329476648" lon="14.114620821279797"><ele>476.66618445544077</ele><time>2026-09-30T01:27:26.461Z</time></trkpt><trkpt lat="46.36876560874492" lon="14.114640787038756"><ele>477.3320102559912</ele><time>2026-09-30T01:27:28.458Z</time></trkpt><trkpt lat="46.36889775252989" lon="14.114667373532383"><ele>477.9971882909097</ele><time>2026-09-30T01:27:30.458Z</time></trkpt><trkpt lat="46.369029232206884" lon="14.114700551222867"><ele>478.66153379279706</ele><time>2026-09-30T01:27:32.458Z</time></trkpt><trkpt lat="46.36915990170088" lon="14.114740283249521"><ele>479.3248622255078</ele><time>2026-09-30T01:27:34.458Z</time></trkpt><trkpt lat="46.36928961583702" lon="14.114786525469736"><ele>479.98698933540913</ele><time>2026-09-30T01:27:36.458Z</time></trkpt></trkseg></trk></gpx>